COMMENT,ORIGINATOR,NORAD_CAT_ID,OBJECT_NAME,OBJECT_TYPE,CLASSIFICATION_TYPE,INTLDES,EPOCH,EPOCH_MICROSECONDS,MEAN_MOTION,ECCENTRICITY,INCLINATION,RA_OF_ASC_NODE,ARG_OF_PERICENTER,MEAN_ANOMALY,EPHEMERIS_TYPE,ELEMENT_SET_NO,REV_AT_EPOCH,BSTAR,MEAN_MOTION_DOT,MEAN_MOTION_DDOT,FILE,TLE_LINE0,TLE_LINE1,TLE_LINE2,OBJECT_ID,OBJECT_NUMBER,SEMIMAJOR_AXIS,PERIOD,APOGEE,PERIGEE,DECAYED
GENERATED VIA SPACETRACK.ORG API,18 SPCS,51976,STARLINK-3663,PAYLOAD,U,22025W,2022-05-26 22:00:00,999936,15.08837465,0.0001885,53.2199,126.5955,49.6737,272.0484,0,999,130,0.0019128,0.00030283,0.0,3466271,0 STARLINK-3663,1 51976U 22025W   22146.91667824  .00030283  00000-0  19128-2 0  9996,2 51976  53.2199 126.5955 0001885  49.6737 272.0484 15.08837465  1308,2022-025W,51976,6917.888,95.438,541.057,538.449,0
GENERATED VIA SPACETRACK.ORG API,18 SPCS,51976,STARLINK-3663,PAYLOAD,U,22025W,2022-05-27 14:00:01,224,15.08844335,0.0001976,53.2195,123.604,43.0953,301.8178,0,999,130,-0.0020822,-0.00033278,0.0,3467585,0 STARLINK-3663,1 51976U 22025W   22147.58334491 -.00033278  00000-0 -20822-2 0  9993,2 51976  53.2195 123.6040 0001976  43.0953 301.8178 15.08844335  1301,2022-025W,51976,6917.867,95.437,541.099,538.365,0
GENERATED VIA SPACETRACK.ORG API,18 SPCS,51976,STARLINK-3663,PAYLOAD,U,22025W,2022-05-27 16:00:00,999936,15.08830377,0.0001914,53.2198,123.2294,45.2636,32.5496,0,999,1352,-0.00057353,-9.402e-05,0.0,3467557,0 STARLINK-3663,1 51976U 22025W   22147.66667824 -.00009402  00000-0 -57353-3 0  9993,2 51976  53.2198 123.2294 0001914  45.2636  32.5496 15.08830377 13524,2022-025W,51976,6917.91,95.438,541.099,538.451,0
GENERATED VIA SPACETRACK.ORG API,18 SPCS,51976,STARLINK-3663,PAYLOAD,U,22025W,2022-05-27 22:00:01,999584,15.08823378,0.0001904,53.2198,122.1067,49.0003,307.5603,0,999,130,0.0017338,0.00027401,0.0,3468079,0 STARLINK-3663,1 51976U 22025W   22147.91668981  .00027401  00000-0  17338-2 0  9991,2 51976  53.2198 122.1067 0001904  49.0003 307.5603 15.08823378  1300,2022-025W,51976,6917.931,95.439,541.113,538.479,0
GENERATED VIA SPACETRACK.ORG API,18 SPCS,51976,STARLINK-3663,PAYLOAD,U,22025W,2022-05-28 06:00:02,160,15.0883451,0.0002118,53.2199,120.6123,44.9162,323.2382,0,999,1361,0.00051769,7.959e-05,0.0,3468595,0 STARLINK-3663,1 51976U 22025W   22148.25002315  .00007959  00000-0  51769-3 0  9995,2 51976  53.2199 120.6123 0002118  44.9162 323.2382 15.08834510 13611,2022-025W,51976,6917.897,95.438,541.227,538.297,0
GENERATED VIA SPACETRACK.ORG API,18 SPCS,51976,STARLINK-3663,PAYLOAD,U,22025W,2022-05-28 14:00:01,224,15.08862658,0.000205,53.2198,119.115,44.6206,335.0619,0,999,130,-0.0017978,-0.00028805,0.0,3469283,0 STARLINK-3663,1 51976U 22025W   22148.58334491 -.00028805  00000-0 -17978-2 0  9992,2 51976  53.2198 119.1150 0002050  44.6206 335.0619 15.08862658  1305,2022-025W,51976,6917.811,95.436,541.094,538.258,0
GENERATED VIA SPACETRACK.ORG API,18 SPCS,51976,STARLINK-3663,PAYLOAD,U,22025W,2022-05-28 22:00:00,999936,15.08864176,0.0001964,53.2202,117.6179,49.5283,341.7684,0,999,130,-5.0578e-05,-1.094e-05,0.0,3469840,0 STARLINK-3663,1 51976U 22025W   22148.91667824 -.00001094  00000-0 -50578-4 0  9994,2 51976  53.2202 117.6179 0001964  49.5283 341.7684 15.08864176  1300,2022-025W,51976,6917.806,95.436,541.03,538.313,0
GENERATED VIA SPACETRACK.ORG API,18 SPCS,51976,STARLINK-3663,PAYLOAD,U,22025W,2022-05-29 14:00:01,224,15.08854992,0.0002,53.2205,114.6261,42.8572,11.6517,0,999,1381,-0.0040991,-0.00064965,0.0,3470842,0 STARLINK-3663,1 51976U 22025W   22149.58334491 -.00064965  00000-0 -40991-2 0  9991,2 51976  53.2205 114.6261 0002000  42.8572  11.6517 15.08854992 13813,2022-025W,51976,6917.835,95.437,541.083,538.316,0
GENERATED VIA SPACETRACK.ORG API,18 SPCS,51976,STARLINK-3663,PAYLOAD,U,22025W,2022-05-29 14:00:01,224,15.08854992,0.0002,53.2205,114.6261,42.8572,11.6517,0,999,130,-0.0040991,-0.00064965,0.0,3470904,0 STARLINK-3663,1 51976U 22025W   22149.58334491 -.00064965  00000-0 -40991-2 0  9991,2 51976  53.2205 114.6261 0002000  42.8572  11.6517 15.08854992  1304,2022-025W,51976,6917.835,95.437,541.083,538.316,0
GENERATED VIA SPACETRACK.ORG API,18 SPCS,51976,STARLINK-3663,PAYLOAD,U,22025W,2022-05-29 22:00:00,999936,15.08819143,0.0001922,53.221,113.1293,46.6309,19.4582,0,999,130,0.0011236,0.00017629,0.0,3471362,0 STARLINK-3663,1 51976U 22025W   22149.91667824  .00017629  00000-0  11236-2 0  9990,2 51976  53.2210 113.1293 0001922  46.6309  19.4582 15.08819143  1308,2022-025W,51976,6917.944,95.439,541.139,538.48,0
GENERATED VIA SPACETRACK.ORG API,18 SPCS,51976,STARLINK-3663,PAYLOAD,U,22025W,2022-05-30 06:00:00,999648,15.08815675,0.0002129,53.2212,111.6349,42.7055,34.9642,0,999,1391,0.0012372,0.00019444,0.0,3471877,0 STARLINK-3663,1 51976U 22025W   22150.25001157  .00019444  00000-0  12372-2 0  9999,2 51976  53.2212 111.6349 0002129  42.7055  34.9642 15.08815675 13915,2022-025W,51976,6917.955,95.439,541.293,538.347,0
GENERATED VIA SPACETRACK.ORG API,18 SPCS,51976,STARLINK-3663,PAYLOAD,U,22025W,2022-05-30 14:00:01,224,15.08845251,0.0002023,53.2214,110.1375,44.2068,45.0369,0,999,130,-0.0013427,-0.00021597,0.0,3472495,0 STARLINK-3663,1 51976U 22025W   22150.58334491 -.00021597  00000-0 -13427-2 0  9991,2 51976  53.2214 110.1375 0002023  44.2068  45.0369 15.08845251  1306,2022-025W,51976,6917.864,95.437,541.129,538.33,0
GENERATED VIA SPACETRACK.ORG API,18 SPCS,51976,STARLINK-3663,PAYLOAD,U,22025W,2022-05-30 22:00:00,999936,15.08841979,0.000199,53.2218,108.6409,48.4137,52.4152,0,999,130,0.00058426,9.023e-05,0.0,3472994,0 STARLINK-3663,1 51976U 22025W   22150.91667824  .00009023  00000-0  58426-3 0  9994,2 51976  53.2218 108.6409 0001990  48.4137  52.4152 15.08841979  1300,2022-025W,51976,6917.874,95.437,541.116,538.363,0
GENERATED VIA SPACETRACK.ORG API,18 SPCS,51976,STARLINK-3663,PAYLOAD,U,22025W,2022-05-31 06:00:02,160,15.08833454,0.0002162,53.2219,107.1465,43.7552,68.7413,0,999,1407,0.0013505,0.00021267,0.0,3473458,0 STARLINK-3663,1 51976U 22025W   22151.25002315  .00021267  00000-0  13505-2 0  9992,2 51976  53.2219 107.1465 0002162  43.7552  68.7413 15.08833454 14075,2022-025W,51976,6917.9,95.438,541.261,538.27,0
GENERATED VIA SPACETRACK.ORG API,18 SPCS,51976,STARLINK-3663,PAYLOAD,U,22025W,2022-05-31 21:24:06,788736,15.08831964,0.0002001,53.2228,104.2656,47.7459,312.3703,0,999,1416,8.236e-05,1.023e-05,0.0,3474589,0 STARLINK-3663,1 51976U 22025W   22151.89174524  .00001023  00000-0  82360-4 0  9999,2 51976  53.2228 104.2656 0002001  47.7459 312.3703 15.08831964 14161,2022-025W,51976,6917.905,95.438,541.154,538.386,0
GENERATED VIA SPACETRACK.ORG API,18 SPCS,51976,STARLINK-3663,PAYLOAD,U,22025W,2022-06-01 20:00:01,224,15.08839762,0.0001909,53.2207,100.0455,49.8783,27.6068,0,999,130,0.0014694,0.00023175,0.0,3476255,0 STARLINK-3663,1 51976U 22025W   22152.83334491  .00023175  00000-0  14694-2 0  9990,2 51976  53.2207 100.0455 0001909  49.8783  27.6068 15.08839762  1304,2022-025W,51976,6917.881,95.438,541.067,538.425,0
GENERATED VIA SPACETRACK.ORG API,18 SPCS,51976,STARLINK-3663,PAYLOAD,U,22025W,2022-06-01 20:00:01,224,15.08839762,0.0001909,53.2207,100.0455,49.8783,27.6068,0,999,1430,0.0014694,0.00023175,0.0,3476816,0 STARLINK-3663,1 51976U 22025W   22152.83334491  .00023175  00000-0  14694-2 0  9990,2 51976  53.2207 100.0455 0001909  49.8783  27.6068 15.08839762 14308,2022-025W,51976,6917.881,95.438,541.067,538.425,0
GENERATED VIA SPACETRACK.ORG API,18 SPCS,51976,STARLINK-3663,PAYLOAD,U,22025W,2022-06-03 03:27:14,265504,15.08829526,0.0002033,53.2233,94.1562,49.182,310.9348,0,999,1450,2.3687e-05,8.9e-07,0.0,3478568,0 STARLINK-3663,1 51976U 22025W   22154.14391511  .00000089  00000-0  23687-4 0  9995,2 51976  53.2233  94.1562 0002033  49.1820 310.9348 15.08829526 14501,2022-025W,51976,6917.912,95.438,541.184,538.371,0
GENERATED VIA SPACETRACK.ORG API,18 SPCS,51976,STARLINK-3663,PAYLOAD,U,22025W,2022-06-03 12:59:32,862912,15.08835981,0.0002072,53.2233,92.3722,48.8908,311.2263,0,999,1346,3.714e-05,3.03e-06,0.0,3479192,0 STARLINK-3663,1 51976U 22025W   22154.54135258  .00000303  00000-0  37140-4 0  9991,2 51976  53.2233  92.3722 0002072  48.8908 311.2263 15.08835981 13461,2022-025W,51976,6917.893,95.438,541.191,538.324,0
GENERATED VIA SPACETRACK.ORG API,18 SPCS,51976,STARLINK-3663,PAYLOAD,U,22025W,2022-06-03 19:21:05,282496,15.0883832,0.0002071,53.2234,91.1827,49.1611,310.9561,0,999,1460,5.0706e-05,5.19e-06,0.0,3479582,0 STARLINK-3663,1 51976U 22025W   22154.80631114  .00000519  00000-0  50706-4 0  9994,2 51976  53.2234  91.1827 0002071  49.1611 310.9561 15.08838320 14603,2022-025W,51976,6917.886,95.438,541.183,538.318,0
GENERATED VIA SPACETRACK.ORG API,18 SPCS,51976,STARLINK-3663,PAYLOAD,U,22025W,2022-06-03 19:21:05,282496,15.0883832,0.0002071,53.2234,91.1827,49.1611,310.9561,0,999,1350,5.0706e-05,5.19e-06,0.0,3479630,0 STARLINK-3663,1 51976U 22025W   22154.80631114  .00000519  00000-0  50706-4 0  9994,2 51976  53.2234  91.1827 0002071  49.1611 310.9561 15.08838320 13501,2022-025W,51976,6917.886,95.438,541.183,538.318,0
GENERATED VIA SPACETRACK.ORG API,18 SPCS,51976,STARLINK-3663,PAYLOAD,U,22025W,2022-06-04 12:50:19,321440,15.08846056,0.0002134,53.2233,87.9124,49.182,310.9357,0,999,1361,2.7903e-05,1.56e-06,0.0,3480894,0 STARLINK-3663,1 51976U 22025W   22155.53494585  .00000156  00000-0  27903-4 0  9994,2 51976  53.2233  87.9124 0002134  49.1820 310.9357 15.08846056 13615,2022-025W,51976,6917.862,95.437,541.203,538.251,0
GENERATED VIA SPACETRACK.ORG API,18 SPCS,51976,STARLINK-3663,PAYLOAD,U,22025W,2022-06-04 12:50:19,321440,15.08846056,0.0002134,53.2233,87.9124,49.182,310.9357,0,999,1471,2.7903e-05,1.56e-06,0.0,3481215,0 STARLINK-3663,1 51976U 22025W   22155.53494585  .00000156  00000-0  27903-4 0  9994,2 51976  53.2233  87.9124 0002134  49.1820 310.9357 15.08846056 14717,2022-025W,51976,6917.862,95.437,541.203,538.251,0
